[{"OBJECT_NAME":"QIANFAN-120","OBJECT_ID":"2026-075M","EPOCH":"2026-04-22T21:54:12.947040","MEAN_MOTION":14.22213216,"ECCENTRICITY":0.00151382,"INCLINATION":88.9903,"RA_OF_ASC_NODE":326.9433,"ARG_OF_PERICENTER":164.6768,"MEAN_ANOMALY":195.4885,"EPHEMERIS_TYPE":0,"CLASSIFICATION_TYPE":"U","NORAD_CAT_ID":68647,"ELEMENT_SET_NO":999,"REV_AT_EPOCH":218,"BSTAR":0.00013341432,"MEAN_MOTION_DOT":3.11e-6,"MEAN_MOTION_DDOT":0},{"OBJECT_NAME":"QIANFAN-121","OBJECT_ID":"2026-075N","EPOCH":"2026-04-22T21:51:50.757696","MEAN_MOTION":14.22351508,"ECCENTRICITY":0.00145627,"INCLINATION":88.9903,"RA_OF_ASC_NODE":326.943,"ARG_OF_PERICENTER":165.678,"MEAN_ANOMALY":194.4827,"EPHEMERIS_TYPE":0,"CLASSIFICATION_TYPE":"U","NORAD_CAT_ID":68648,"ELEMENT_SET_NO":999,"REV_AT_EPOCH":218,"BSTAR":7.9393532e-5,"MEAN_MOTION_DOT":1.91e-6,"MEAN_MOTION_DDOT":0},{"OBJECT_NAME":"QIANFAN-122","OBJECT_ID":"2026-075P","EPOCH":"2026-04-22T21:48:13.585248","MEAN_MOTION":14.2289619,"ECCENTRICITY":0.00147073,"INCLINATION":88.9902,"RA_OF_ASC_NODE":326.9426,"ARG_OF_PERICENTER":164.8681,"MEAN_ANOMALY":195.2954,"EPHEMERIS_TYPE":0,"CLASSIFICATION_TYPE":"U","NORAD_CAT_ID":68649,"ELEMENT_SET_NO":999,"REV_AT_EPOCH":218,"BSTAR":7.9484175e-5,"MEAN_MOTION_DOT":1.93e-6,"MEAN_MOTION_DDOT":0},{"OBJECT_NAME":"QIANFAN-123","OBJECT_ID":"2026-075Q","EPOCH":"2026-04-22T23:48:16.429248","MEAN_MOTION":14.20189437,"ECCENTRICITY":0.0015044,"INCLINATION":88.9899,"RA_OF_ASC_NODE":326.9361,"ARG_OF_PERICENTER":164.6571,"MEAN_ANOMALY":195.5078,"EPHEMERIS_TYPE":0,"CLASSIFICATION_TYPE":"U","NORAD_CAT_ID":68650,"ELEMENT_SET_NO":999,"REV_AT_EPOCH":216,"BSTAR":0.00010297578,"MEAN_MOTION_DOT":2.34e-6,"MEAN_MOTION_DDOT":0},{"OBJECT_NAME":"QIANFAN-124","OBJECT_ID":"2026-075R","EPOCH":"2026-04-22T21:47:49.829568","MEAN_MOTION":14.22716242,"ECCENTRICITY":0.00152762,"INCLINATION":88.9902,"RA_OF_ASC_NODE":326.9426,"ARG_OF_PERICENTER":164.7286,"MEAN_ANOMALY":195.437,"EPHEMERIS_TYPE":0,"CLASSIFICATION_TYPE":"U","NORAD_CAT_ID":68651,"ELEMENT_SET_NO":999,"REV_AT_EPOCH":218,"BSTAR":7.2974621e-5,"MEAN_MOTION_DOT":1.78e-6,"MEAN_MOTION_DDOT":0},{"OBJECT_NAME":"QIANFAN-125","OBJECT_ID":"2026-075S","EPOCH":"2026-04-22T21:44:25.605888","MEAN_MOTION":14.23396152,"ECCENTRICITY":0.00149868,"INCLINATION":88.9904,"RA_OF_ASC_NODE":326.9424,"ARG_OF_PERICENTER":165.206,"MEAN_ANOMALY":194.9574,"EPHEMERIS_TYPE":0,"CLASSIFICATION_TYPE":"U","NORAD_CAT_ID":68652,"ELEMENT_SET_NO":999,"REV_AT_EPOCH":218,"BSTAR":6.0975372e-5,"MEAN_MOTION_DOT":1.53e-6,"MEAN_MOTION_DDOT":0},{"OBJECT_NAME":"QIANFAN-126","OBJECT_ID":"2026-075T","EPOCH":"2026-04-22T21:38:39.125472","MEAN_MOTION":14.2495062,"ECCENTRICITY":0.00150407,"INCLINATION":88.9902,"RA_OF_ASC_NODE":326.9415,"ARG_OF_PERICENTER":164.6975,"MEAN_ANOMALY":195.4676,"EPHEMERIS_TYPE":0,"CLASSIFICATION_TYPE":"U","NORAD_CAT_ID":68653,"ELEMENT_SET_NO":999,"REV_AT_EPOCH":218,"BSTAR":7.244196e-5,"MEAN_MOTION_DOT":1.84e-6,"MEAN_MOTION_DDOT":0},{"OBJECT_NAME":"HULIANWANG DIGUI-164","OBJECT_ID":"2026-076A","EPOCH":"2026-04-22T16:57:14.688000","MEAN_MOTION":13.76738626,"ECCENTRICITY":0.00012526,"INCLINATION":86.4978,"RA_OF_ASC_NODE":63.2275,"ARG_OF_PERICENTER":31.9739,"MEAN_ANOMALY":328.1501,"EPHEMERIS_TYPE":0,"CLASSIFICATION_TYPE":"U","NORAD_CAT_ID":68656,"ELEMENT_SET_NO":999,"REV_AT_EPOCH":192,"BSTAR":-0.00089922649,"MEAN_MOTION_DOT":-8.66e-6,"MEAN_MOTION_DDOT":0},{"OBJECT_NAME":"HULIANWANG DIGUI-165","OBJECT_ID":"2026-076B","EPOCH":"2026-04-22T16:53:26.256768","MEAN_MOTION":13.77044581,"ECCENTRICITY":0.00028095,"INCLINATION":86.5016,"RA_OF_ASC_NODE":63.2497,"ARG_OF_PERICENTER":1.1659,"MEAN_ANOMALY":358.9511,"EPHEMERIS_TYPE":0,"CLASSIFICATION_TYPE":"U","NORAD_CAT_ID":68657,"ELEMENT_SET_NO":999,"REV_AT_EPOCH":192,"BSTAR":0.00015692798,"MEAN_MOTION_DOT":1.72e-6,"MEAN_MOTION_DDOT":0},{"OBJECT_NAME":"HULIANWANG DIGUI-166","OBJECT_ID":"2026-076C","EPOCH":"2026-04-22T20:18:56.026656","MEAN_MOTION":13.76778633,"ECCENTRICITY":0.00040767,"INCLINATION":86.4878,"RA_OF_ASC_NODE":63.1716,"ARG_OF_PERICENTER":105.8372,"MEAN_ANOMALY":254.3242,"EPHEMERIS_TYPE":0,"CLASSIFICATION_TYPE":"U","NORAD_CAT_ID":68658,"ELEMENT_SET_NO":999,"REV_AT_EPOCH":194,"BSTAR":-0.00052577787,"MEAN_MOTION_DOT":-5.0e-6,"MEAN_MOTION_DDOT":0},{"OBJECT_NAME":"HULIANWANG DIGUI-167","OBJECT_ID":"2026-076D","EPOCH":"2026-04-22T20:14:10.173984","MEAN_MOTION":13.76873239,"ECCENTRICITY":0.00012068,"INCLINATION":86.4984,"RA_OF_ASC_NODE":63.1867,"ARG_OF_PERICENTER":51.857,"MEAN_ANOMALY":308.2702,"EPHEMERIS_TYPE":0,"CLASSIFICATION_TYPE":"U","NORAD_CAT_ID":68659,"ELEMENT_SET_NO":999,"REV_AT_EPOCH":194,"BSTAR":-6.8154883e-5,"MEAN_MOTION_DOT":-5.0e-7,"MEAN_MOTION_DDOT":0},{"OBJECT_NAME":"HULIANWANG DIGUI-168","OBJECT_ID":"2026-076E","EPOCH":"2026-04-22T18:24:57.555648","MEAN_MOTION":13.77208587,"ECCENTRICITY":0.0001685,"INCLINATION":86.5004,"RA_OF_ASC_NODE":63.2069,"ARG_OF_PERICENTER":102.6535,"MEAN_ANOMALY":257.4818,"EPHEMERIS_TYPE":0,"CLASSIFICATION_TYPE":"U","NORAD_CAT_ID":68660,"ELEMENT_SET_NO":999,"REV_AT_EPOCH":192,"BSTAR":-0.00060989245,"MEAN_MOTION_DOT":-5.87e-6,"MEAN_MOTION_DDOT":0},{"OBJECT_NAME":"STARLINK-37195","OBJECT_ID":"2026-077A","EPOCH":"2026-04-22T13:12:39.150432","MEAN_MOTION":15.75204788,"ECCENTRICITY":0.0001492,"INCLINATION":97.2842,"RA_OF_ASC_NODE":343.5896,"ARG_OF_PERICENTER":68.458,"MEAN_ANOMALY":291.6844,"EPHEMERIS_TYPE":0,"CLASSIFICATION_TYPE":"U","NORAD_CAT_ID":68662,"ELEMENT_SET_NO":999,"REV_AT_EPOCH":181,"BSTAR":0.00077674,"MEAN_MOTION_DOT":0.00117408,"MEAN_MOTION_DDOT":0},{"OBJECT_NAME":"STARLINK-37222","OBJECT_ID":"2026-077B","EPOCH":"2026-04-22T14:42:36.332064","MEAN_MOTION":15.75201762,"ECCENTRICITY":0.0001087,"INCLINATION":97.2839,"RA_OF_ASC_NODE":343.6573,"ARG_OF_PERICENTER":70.767,"MEAN_ANOMALY":289.3712,"EPHEMERIS_TYPE":0,"CLASSIFICATION_TYPE":"U","NORAD_CAT_ID":68663,"ELEMENT_SET_NO":999,"REV_AT_EPOCH":182,"BSTAR":0.00073403,"MEAN_MOTION_DOT":0.00110842,"MEAN_MOTION_DDOT":0}]
