QIANFAN-120             
1 68647U 26075M   26112.91264985  .00000311  00000+0  13341-3 0  9996
2 68647  88.9903 326.9433 0015138 164.6768 195.4885 14.22213216  2181
QIANFAN-121             
1 68648U 26075N   26112.91100414  .00000191  00000+0  79394-4 0  9990
2 68648  88.9903 326.9430 0014562 165.6780 194.4827 14.22351508  2186
QIANFAN-122             
1 68649U 26075P   26112.90849057  .00000193  00000+0  79484-4 0  9995
2 68649  88.9902 326.9426 0014707 164.8681 195.2954 14.22896190  2184
QIANFAN-123             
1 68650U 26075Q   26112.99185682  .00000234  00000+0  10298-3 0  9996
2 68650  88.9899 326.9361 0015044 164.6571 195.5078 14.20189437  2165
QIANFAN-124             
1 68651U 26075R   26112.90821562  .00000178  00000+0  72975-4 0  9990
2 68651  88.9902 326.9426 0015276 164.7286 195.4370 14.22716242  2182
QIANFAN-125             
1 68652U 26075S   26112.90585192  .00000153  00000+0  60975-4 0  9997
2 68652  88.9904 326.9424 0014986 165.2060 194.9574 14.23396152  2181
QIANFAN-126             
1 68653U 26075T   26112.90184173  .00000184  00000+0  72442-4 0  9998
2 68653  88.9902 326.9415 0015040 164.6975 195.4676 14.24950620  2186
HULIANWANG DIGUI-164    
1 68656U 26076A   26112.70642000 -.00000866  00000+0 -89923-3 0  9998
2 68656  86.4978  63.2275 0001252  31.9739 328.1501 13.76738626  1923
HULIANWANG DIGUI-165    
1 68657U 26076B   26112.70377612  .00000172  00000+0  15693-3 0  9994
2 68657  86.5016  63.2497 0002809   1.1659 358.9511 13.77044581  1926
HULIANWANG DIGUI-166    
1 68658U 26076C   26112.84648179 -.00000500  00000+0 -52578-3 0  9999
2 68658  86.4878  63.1716 0004076 105.8372 254.3242 13.76778633  1940
HULIANWANG DIGUI-167    
1 68659U 26076D   26112.84317331 -.00000050  00000+0 -68155-4 0  9992
2 68659  86.4984  63.1867 0001206  51.8570 308.2702 13.76873239  1946
HULIANWANG DIGUI-168    
1 68660U 26076E   26112.76733282 -.00000587  00000+0 -60989-3 0  9993
2 68660  86.5004  63.2069 0001685 102.6535 257.4818 13.77208587  1924
STARLINK-37195          
1 68662U 26077A   26112.55045313  .00117408  00000+0  77674-3 0  9992
2 68662  97.2842 343.5896 0001492  68.4580 291.6844 15.75204788  1818
STARLINK-37222          
1 68663U 26077B   26112.61292051  .00110842  00000+0  73403-3 0  9994
2 68663  97.2839 343.6573 0001087  70.7670 289.3712 15.75201762  1822
